"","OBJECTID","ID","ADDRESS","TERMINAL_NUMBER","LATITUDE","LONGITUDE","location","zipcode"
"1",158974616,68,"Eastern Market / 7th & North Carolina Ave SE",31610,38.886952,-76.996806,"635-699 North Carolina Ave SE, Washington, DC 20003, USA","20003"
"2",158974617,69,"14th St & New York Ave NW",31216,38.899632,-77.031686,"1399 New York Ave NW, Washington, DC 20005, USA","20005"
"3",158974618,70,"Benning Branch Library",31705,38.894,-76.947974,"3935 Benning Rd NE, Washington, DC 20019, USA","20019"
"4",158974619,71,"USDA / 12th & Independence Ave SW",31217,38.887237,-77.02823,"201-245 12th St SW, Washington, DC 20228, USA","20228"
"5",158974620,72,"Georgetown Harbor / 30th St NW",31215,38.902221,-77.059219,"901 30th St NW, Washington, DC 20007, USA","20007"
"6",158974621,73,"12th & Newton St NE",31501,38.933668,-76.991016,"3601 12th St NE, Washington, DC 20017, USA","20017"
"7",158974622,74,"US Dept of State / Virginia Ave & 21st St NW",31220,38.894919,-77.046587,"319-399 21st St NW, Washington, DC 20245, USA","20245"
"8",158974623,75,"L'Enfant Plaza / 7th & C St SW",31218,38.886266,-77.022241,"700-746 C St SW, Washington, DC 20229, USA","20229"
"9",158974624,76,"10th St & Constitution Ave NW",31219,38.893028,-77.026013,"300-376 10th St NW, Washington, DC 20530, USA","20530"
"10",158974625,77,"Kennedy Center",31211,38.897293,-77.05557,"2700 F St NW, Washington, DC 20566, USA","20566"
"11",158974626,78,"Eastern Market Metro / Pennsylvania Ave & 7th St SE",31613,38.884,-76.995397,"701-759 Pennsylvania Ave SE, Washington, DC 20003, USA","20003"
"12",158974627,79,"18th & M St NW",31221,38.904742,-77.041606,"1125 18th St NW, Washington, DC 20036, USA","20036"
"13",158974628,80,"Tenleytown / Wisconsin Ave & Albemarle St NW",31303,38.947607,-77.079382,"4443-4445 Wisconsin Ave NW, Washington, DC 20016, USA","20016"
"14",158974629,81,"13th & H St NE",31611,38.9003,-76.9882,"801-813 13th St NE, Washington, DC 20002, USA","20002"
"15",158974630,82,"5th & F St NW",31620,38.897222,-77.019347,"500-546 F St NW, Washington, DC 20004, USA","20004"
"16",158974631,83,"New York Ave & 15th St NW",31222,38.8991,-77.0337,"701-725 15th St NW, Washington, DC 20005, USA","20005"
"17",158974632,84,"Convention Center / 7th & M St NW",31223,38.905737,-77.02227,"701-751 M St NW, Washington, DC 20001, USA","20001"
"18",158974633,85,"Harvard St & Adams Mill Rd NW",31112,38.927872,-77.043358,"1845 Harvard St NW, Washington, DC 20009, USA","20009"
"19",158974634,86,"19th & L St NW",31224,38.903407,-77.043648,"1028 19th St NW, Washington, DC 20036, USA","20036"
"20",158974635,87,"C & O Canal & Wisconsin Ave NW",31225,38.90375,-77.06269,"1041-1043 Wisconsin Ave NW, Washington, DC 20007, USA","20007"
"21",158974636,88,"6th & Water St SW / SW Waterfront",31609,38.87675,-77.02127,"610 Water St SW, Washington, DC 20024, USA","20024"
"22",158974637,89,"D St & Maryland Ave NE",31612,38.894758,-76.997114,"615 D St NE, Washington, DC 20002, USA","20002"
"23",158974638,90,"34th St & Wisconsin Ave NW",31226,38.916442,-77.0682,"1855 Wisconsin Ave NW, Washington, DC 20007, USA","20007"
"24",158974639,91,"13th St & New York Ave NW",31227,38.900283,-77.029822,"1301 New York Ave NW, Washington, DC 20530, USA","20530"
"25",158974640,92,"8th & H St NW",31228,38.8997,-77.023086,"758-798 8th St NW, Washington, DC 20001, USA","20001"
"26",158974641,93,"10th & Monroe St NE",31504,38.932514,-76.992889,"900-998 Monroe St NE, Washington, DC 20017, USA","20017"
"27",158974642,94,"Eckington Pl & Q St NE",31505,38.910972,-77.00495,"1580-1598 Eckington Pl NE, Washington, DC 20002, USA","20002"
"28",158974643,95,"6th & H St NE",31615,38.899972,-76.998347,"737 6th St NE, Washington, DC 20002, USA","20002"
"29",158974644,96,"3rd & H St NE",31616,38.900412,-77.001949,"827 3rd St NE, Washington, DC 20002, USA","20002"
"30",158974645,97,"Bladensburg Rd & Benning Rd NE",31617,38.900413,-76.982872,"801-807 Bladensburg Rd NE, Washington, DC 20002, USA","20002"
"31",158974646,98,"4th & East Capitol St NE",31618,38.889955,-77.000349,"404 E Capitol St SE, Washington, DC 20003, USA","20003"
"32",158974647,99,"Lincoln Park / 13th & East Capitol St NE",31619,38.890461,-76.988355,"1 13th St NE, Washington, DC 20002, USA","20002"
"33",158974648,100,"Branch & Pennsylvania Ave SE",31701,38.8692,-76.9599,"3220-3242 Pennsylvania Ave SE, Washington, DC 20020, USA","20020"
"34",158974649,101,"13th & D St NE",31622,38.894832,-76.987633,"1300-1332 D St NE, Washington, DC 20002, USA","20002"
"35",158974650,102,"New Hampshire Ave & T St NW",31229,38.91554,-77.03818,"1622-1698 T St NW, Washington, DC 20009, USA","20009"
"36",158974651,103,"Metro Center / 12th & G St NW",31230,38.898364,-77.027869,"1101-1199 G St NW, Washington, DC 20005, USA","20005"
"37",158974652,104,"14th & D St NW / Ronald Reagan Building",31231,38.894514,-77.031617,"1352-1398 D St NW, Washington, DC 20004, USA","20004"
"38",158974653,105,"7th & F St NW/Portrait Gallery",31232,38.897296,-77.022185,"701-799 F St NW, Washington, DC 20004, USA","20004"
"39",158974654,106,"17th & K St NW / Farragut Square",31233,38.902061,-77.038322,"1666 K St NW, Washington, DC 20006, USA","20006"
"40",158974655,107,"20th & O St NW / Dupont South",31234,38.908905,-77.04478,"1401-1499 20th St NW, Washington, DC 20036, USA","20036"
"41",158974656,108,"4th & D St NW / Judiciary Square",31621,38.895344,-77.016106,"441 4th St NW, Washington, DC 20001, USA","20001"
"42",158974657,109,"19th St & Constitution Ave NW",31235,38.8923,-77.0436,"200-250 19th St NW, Washington, DC 20245, USA","20245"
"43",158974658,110,"37th & O St NW / Georgetown University",31236,38.90774,-77.071652,"1404 37th St NW, Washington, DC 20007, USA","20007"
"44",158974659,111,"11th & H St NE",31614,38.899983,-76.991383,"1101 H St NE, Washington, DC 20002, USA","20002"
"45",158974660,112,"25th St & Pennsylvania Ave NW",31237,38.903827,-77.053485,"2501 Pennsylvania Ave NW, Washington, DC 20037, USA","20037"
"46",158974752,211,"Columbia Pike & S Courthouse Rd",31053,38.863833,-77.080319,"1052-1188 S Courthouse Rd, Arlington, VA 22204, USA","22204"
"47",158974753,212,"Walter Reed Community Center / Walter Reed Dr & 16th St S",31054,38.857803,-77.086733,"2909 16th St S, Arlington, VA 22204, USA","22204"
"48",158974754,213,"28th St S & S Meade St",31055,38.846222,-77.069275,"1201-1299 28th St S, Arlington, VA 22206, USA","22206"
"49",158974755,214,"18th St & Wyoming Ave NW",31114,38.918809,-77.041571,"2219-2227 18th St NW, Washington, DC 20009, USA","20009"
"50",158974756,215,"5th & Kennedy St NW",31403,38.956556,-77.019814,"5501-5505 5th St NW, Washington, DC 20011, USA","20011"
"51",158974757,216,"Georgia Ave & Emerson St NW",31405,38.949662,-77.027333,"1208-1210 Emerson St NW, Washington, DC 20011, USA","20011"
"52",158974758,217,"14th & Upshur St NW",31406,38.942016,-77.032652,"4201-4273 14th St NW, Washington, DC 20011, USA","20011"
"53",158974759,218,"14th St & Colorado Ave NW",31407,38.956432,-77.032947,"5521-5539 Colorado Ave NW, Washington, DC 20011, USA","20011"
"54",158974760,219,"S Troy St & 26th St S",31056,38.847977,-77.075104,"1711 26th St S, Arlington, VA 22206, USA","22206"
"55",158974761,220,"S Four Mile Run Dr & S Shirlington Rd",31057,38.8444,-77.085931,"3501 S Four Mile Run Dr, Arlington, VA 22206, USA","22206"
"56",158974762,221,"S Oakland St & Columbia Pike",31058,38.860789,-77.09586,"S Oakland St, Arlington, VA 22204, USA","22204"
"57",158974763,222,"S Four Mile Run & Walter Reed Dr",31059,38.84736,-77.095431,"4061 S Four Mile Run Dr, Arlington, VA 22204, USA","22204"
"58",158974764,223,"S Arlington Mill Dr & Campbell Ave",31060,38.84232,-77.089555,"Four Mile Run Trail, Arlington, VA 22206, USA","22206"
"59",158974765,224,"S Kenmore & 24th St S",31061,38.848454,-77.084918,"3401-3529 24th St S, Arlington, VA 22206, USA","22206"
"60",158974766,225,"13th St & Eastern Ave",32006,38.987,-77.029417,"8001-8003 13th St, Silver Spring, MD 20910, USA","20910"
"61",158974767,226,"Wisconsin Ave & O St NW",31312,38.90849,-77.063586,"3149-3199 O St NW, Washington, DC 20007, USA","20007"
"62",158974768,227,"S George Mason Dr & 13th St S",31062,38.854691,-77.100555,"1301 S George Mason Dr, Arlington, VA 22204, USA","22204"
"63",158974769,228,"Connecticut & Nebraska Ave NW",31310,38.955016,-77.069956,"5008b Connecticut Ave NW, Washington, DC 20008, USA","20008"
"64",158974770,229,"17th St & Massachusetts Ave NW",31267,38.908142,-77.038359,"1307-1343 17th St NW, Washington, DC 20036, USA","20036"
"65",158974771,230,"15th & Euclid St  NW",31117,38.92333,-77.0352,"2535 15th St NW, Washington, DC 20009, USA","20009"
"66",158974772,231,"8th & East Capitol St NE",31629,38.889988,-76.995193,"724 East Capitol St NE, Washington, DC 20003, USA","20003"
"67",158974773,232,"New Jersey Ave & R St NW",31509,38.912659,-77.017669,"421-427 R St NW, Washington, DC 20001, USA","20001"
"68",158974774,233,"15th & East Capitol St NE",31630,38.889908,-76.983326,"1500 E Capitol St SE, Washington, DC 20003, USA","20003"
"69",158974775,234,"8th & F St NE",31631,38.897274,-76.994749,"801-807 F St NE, Washington, DC 20002, USA","20002"
"70",158974776,235,"18th St & Rhode Island Ave NE",31510,38.927095,-76.978924,"2897 18th St NE, Washington, DC 20018, USA","20018"
"71",158974777,236,"15th & F St NE",31632,38.897195,-76.983575,"511 15th St NE, Washington, DC 20002, USA","20002"
"72",158974778,237,"12th & Irving St NE",31511,38.928644,-76.990955,"1032 Irving St NE, Washington, DC 20017, USA","20017"
"73",158974779,239,"Alabama & MLK Ave SE",31800,38.843222,-76.999388,"5th St SE, Washington, DC 20032, USA","20032"
"74",158974780,240,"Pleasant St & MLK Ave SE",31807,38.863897,-76.990037,"1220 Pleasant St SE, Washington, DC 20020, USA","20020"
"75",158974781,241,"Neal St & Trinidad Ave NE",31512,38.903732,-76.987211,"1299 Neal St NE, Washington, DC 20002, USA","20002"
"76",158974782,242,"12th & U St NW",31268,38.916787,-77.028139,"1932 12th St NW, Washington, DC 20009, USA","20009"
"77",158974783,243,"S George Mason Dr & Four Mile Run",31063,38.852248,-77.105022,"1561-1599 S George Mason Dr, Arlington, VA 22204, USA","22204"
"78",158974784,244,"S Stafford & 34th St S",31064,38.834108,-77.087323,"3308 S Stafford St, Arlington, VA 22206, USA","22206"
"79",158974785,245,"N Pershing Dr & Wayne St",31065,38.880705,-77.08596,"2201 N Pershing Dr, Arlington, VA 22201, USA","22201"
"80",158974786,246,"Columbia Pike & S Orme St",31066,38.867262,-77.072315,"832-900 S Orme St, Arlington, VA 22204, USA","22204"
"81",158974787,247,"3rd St & Pennsylvania Ave SE",31269,38.887378,-77.001955,"200 3rd St SE, Washington, DC 20003, USA","20003"
"82",158974788,248,"8th & D St NW",31270,38.894851,-77.02324,"801 D St NW, Washington, DC 20004, USA","20004"
"83",158974789,249,"3rd & Elm St NW",31118,38.917622,-77.01597,"239 Elm St NW, Washington, DC 20001, USA","20001"
"84",158974790,250,"Rhode Island Ave & V St NE",31513,38.918155,-77.004746,"128-170 V St NE, Washington, DC 20002, USA","20002"
"85",158974791,251,"Constitution Ave & 2nd St NW/DOL",31271,38.892275,-77.013917,"3rd St Tunnel, Washington, DC, USA",NA
"86",158974792,252,"Washington & Independence Ave SW/HHS",31272,38.886978,-77.013769,"3rd St Tunnel, Washington, DC, USA",NA
"87",158974793,253,"Independence Ave & L'Enfant Plaza SW/DOE",31633,38.887312,-77.025762,"300-320 L'Enfant Plaza SW, Washington, DC 20560, USA","20560"
"88",158974794,254,"Hamlin & 7th St NE",31514,38.927497,-76.997194,"500 Hamlin St NE, Washington, DC 20017, USA","20017"
"89",158974795,255,"Columbia Pike & S Walter Reed Dr",31067,38.862478,-77.086599,"1000-1032 S Edgewood St, Arlington, VA 22204, USA","22204"
"90",158974796,256,"Columbia Pike & S Dinwiddie St / Arlington Mill Community Center",31068,38.856319,-77.11153,"4971 Columbia Pike, Arlington, VA 22204, USA","22204"
"91",158974797,257,"Pershing & N George Mason Dr",31069,38.871822,-77.107906,"4326 N Pershing Dr, Arlington, VA 22203, USA","22203"
"92",158974798,258,"Fenton St & New York Ave",32001,38.985404,-77.023082,"7676 Fenton St, Silver Spring, MD 20910, USA","20910"
"93",158974799,259,"Bethesda Ave & Arlington Rd",32002,38.981103,-77.097426,"4851 Bethesda Ave, Bethesda, MD 20814, USA","20814"
"94",158974800,260,"Montgomery Ave & Waverly St",32003,38.983838,-77.09221,"4550-4624 Montgomery Ave, Bethesda, MD 20814, USA","20814"
"95",158974801,261,"Fallsgrove Blvd & Fallsgrove Dr",32004,39.096312,-77.192672,"14925 Fallsgrove Blvd, Rockville, MD 20850, USA","20850"
"96",158974802,436,"New Dominion Pkwy & Fountain Dr",32212,38.960574,-77.356324,"New Dominion Pkwy, Reston, VA 20190, USA","20190"
"97",158974803,437,"Sunset Hills & Old Reston Ave",32213,38.955079,-77.351649,"11728 Sunset Hills Rd, Reston, VA 20190, USA","20190"
"98",158974804,438,"Reston Town Center Transit Station",32214,38.957037,-77.359718,"12051 Bluemont Way, Reston, VA 20190, USA","20190"
"99",158974805,439,"1st & D St SE",31643,38.884916,-77.005965,"401 First St SE, Washington, DC 20003, USA","20003"
"100",158974806,440,"Reston Station",32215,38.948363,-77.338119,"1860 Wiehle Ave, Reston, VA 20190, USA","20190"
"101",158974807,441,"Library St & Freedom Dr",32216,38.959633,-77.358741,"Library St, Reston, VA 20190, USA","20190"
"102",158974808,442,"Sunset Hills Rd & Discovery Square",32217,38.95534,-77.357611,"12012 Sunset Hills Rd, Reston, VA 20190, USA","20190"
"103",158974809,443,"22nd St & Constitution Ave NW",31292,38.892441,-77.048947,"100-198 22nd St NW, Washington, DC 20037, USA","20037"
"104",158974810,444,"61st St & Banks Pl NE",31714,38.891805,-76.913563,"101 61st St NE, Washington, MD 20019, USA","20019"
"105",158974811,445,"Temporary Rd & Old Reston Ave",32218,38.960084,-77.353414,"1800 Temporary Rd, Reston, VA 20190, USA","20190"
"106",158974812,446,"Reston YMCA",32219,38.955314,-77.368416,"12192 Sunset Hills Rd, Reston, VA 20190, USA","20190"
"107",158974813,447,"Sunset Hills Rd & Isaac Newton Square",32220,38.951443,-77.34038,"11420-11448 Sunset Hills Rd, Reston, VA 20190, USA","20190"
"108",158974814,448,"N Lynn St & Fairfax Dr",31917,38.89386,-77.070862,"1649-1675 N Lynn St, Arlington, VA 22209, USA","22209"
"109",158974815,449,"Georgia Ave & Piney Branch Rd NW",31414,38.967505,-77.027976,"1207 Tuckerman St NW, Washington, DC 20011, USA","20011"
"110",158974816,450,"Greensboro & International Dr",32221,38.923083,-77.227417,"8144-8158 Greensboro Dr, Tysons, VA 22102, USA","22102"
"111",158974817,451,"Madison & Fairfax St",31918,38.812351,-77.040691,"274-298 Madison St, Alexandria, VA 22314, USA","22314"
"112",158974818,452,"Sligo Ave & Carroll Ln",32058,38.990874,-77.016311,"641-699 Sligo Ave, Silver Spring, MD 20910, USA","20910"
"113",158974819,453,"15th & W St NW",31125,38.919086,-77.034502,"2189-2199 New Hampshire Ave NW, Washington, DC 20009, USA","20009"
"114",158974820,454,"12th St & Pennsylvania Ave SE",31644,38.882489,-76.990121,"500-510 12th St SE, Washington, DC 20003, USA","20003"
"115",158974821,455,"3rd St & Riggs Rd NE",31412,38.957463,-77.002239,"310 Riggs Rd NE, Washington, DC 20011, USA","20011"
"116",158974822,456,"Carlin Springs Rd & N Thomas St",31919,38.876695,-77.112982,"4410 N Carlin Springs Rd, Arlington, VA 22203, USA","22203"
"117",158974823,457,"Towers Crescent Dr & Tysons One Pl",32222,38.915246,-77.220157,"8020 Towers Crescent Dr, Vienna, VA 22182, USA","22182"
"118",158974824,458,"6th & K St NE",31645,38.902877,-76.998405,"1001-1013 6th St NE, Washington, DC 20002, USA","20002"
"119",158974825,459,"Pooks Hill Rd & Linden Ave",32057,39.014716,-77.107143,"5300-5340 Pooks Hill Rd, Bethesda, MD 20814, USA","20814"
"120",158974826,460,"Takoma Park Rec Center",32059,38.98265,-76.988311,"7315-7371 New Hampshire Ave, Takoma Park, MD 20912, USA","20912"
"121",158974827,461,"New Hampshire & Kirklynn Ave",32061,38.988101,-76.988422,"7631-7669 Kirklynn Ave, Takoma Park, MD 20912, USA","20912"
"122",158974828,462,"Wheaton Metro/Georgia Ave & Reedie Dr",32062,39.038341,-77.051023,"11150 Georgia Ave, Silver Spring, MD 20902, USA","20902"
"123",158974829,463,"Amherst Ave & Elkins St",32063,39.044887,-77.047788,"11601-11603 Elkin St, Silver Spring, MD 20902, USA","20902"
"124",158974830,464,"Amherst Ave & Prichard Rd",32064,39.035965,-77.048395,"10934-10998 Amherst Ave, Silver Spring, MD 20902, USA","20902"
"125",158974831,465,"Grandview & Blueridge Ave",32065,39.043272,-77.053085,"11501-11511 Grandview Ave, Silver Spring, MD 20902, USA","20902"
"126",158974832,466,"Windham Ln & Amherst Ave",32066,39.032029,-77.04735,"2201-2257 Windham Ln, Silver Spring, MD 20902, USA","20902"
"127",158974833,467,"North Shore Dr & Village Rd",32223,38.970412,-77.340787,"11410 N Shore Dr, Reston, VA 20190, USA","20190"
"128",158974834,468,"Town Center Pkwy & Sunset Hills Rd",32224,38.955171,-77.363094,"Town Center Pkwy, Reston, VA 20190, USA","20190"
"129",158974835,469,"3rd & Underwood St NW",31413,38.968834,-77.016258,"6500 3rd St NW, Washington, DC 20012, USA","20012"
"130",158974836,470,"18th & Monroe St NE",31521,38.93293,-76.979517,"3421 18th St NE, Washington, DC 20018, USA","20018"
"131",158974837,471,"7th & E St SW",31294,38.88345,-77.021741,"450 7th St SW, Washington, DC 20024, USA","20024"
"132",158974838,472,"Shady Grove Metro East",32067,39.121327,-77.164969,"15903 Somerville Drive, Rockville, MD 20855, USA","20855"
"133",158974839,473,"Potomac & M St NW",31295,38.905368,-77.065149,"1203 Potomac St NW, Washington, DC 20007, USA","20007"
"134",158974840,474,"Columbia & Ontario Rd NW",31296,38.924088,-77.040787,"1747 Columbia Rd NW, Washington, DC 20009, USA","20009"
"135",158974841,475,"Washington-Lee High School / N Stafford St & Generals Way",31920,38.888282,-77.111066,"1301-1383 N Stafford St, Arlington, VA 22201, USA","22201"
"136",158974842,476,"Westover Library / Washington Blvd & N McKinley Rd",31921,38.886048,-77.142317,"5901-5927 Washington Blvd, Arlington, VA 22205, USA","22205"
"137",158974843,477,"Columbia Pike & S Taylor St",31923,38.858524,-77.103728,"969 S Taylor St, Arlington, VA 22204, USA","22204"
"138",158974844,478,"Columbus Ave & Tribeca St",32068,39.126,-77.1673,"Gramercy Blvd, Derwood, MD 20855, USA","20855"
"139",158974845,479,"Columbus Ave & Gramercy Blvd",32069,39.12333,-77.16486,"Columbus Avenue, Derwood, MD 20855, USA","20855"
"140",158974846,480,"Reston Pkwy & Spectrum Dr",32225,38.964208,-77.35428,"1761-1777 Reston Pkwy, Reston, VA 20190, USA","20190"
"141",158974847,481,"Key West Ave & Great Seneca Hwy",32070,39.105642,-77.20386,"9707 Decoverly Dr, Rockville, MD 20850, USA","20850"
"142",158974848,482,"Virginia Ave & 25th St NW",31297,38.8995,-77.054155,"Potomac River Fwy, Washington, DC 20037, USA","20037"
"143",158974849,483,"15th & M St NW",31298,38.905424,-77.034674,"1156-1198 15th St NW, Washington, DC 20005, USA","20005"
"144",158974850,484,"11th & Girard St NW",31126,38.925636,-77.027112,"2724 11th St NW, Washington, DC 20001, USA","20001"
"145",158974851,485,"Connecticut Ave & R St NW",31299,38.912644,-77.04564,"2009 R St NW, Washington, DC 20009, USA","20009"
"146",158974852,486,"Wilson Blvd & N Troy St",31924,38.892556,-77.082089,"2005 Wilson Blvd, Arlington, VA 22201, USA","22201"
"147",158974853,487,"Nebraska Ave/AU East Campus",31320,38.936298,-77.087128,"3533-3543 Nebraska Ave NW, Washington, DC 20016, USA","20016"
"148",158974854,488,"15th St & Constitution Ave NW",31321,38.892244,-77.033234,"1401-1499 Constitution Ave NW, Washington, DC 20230, USA","20230"
"149",158974661,113,"Columbus Circle / Union Station",31623,38.89696,-77.00493,"1 Columbus Circle Northeast, Washington, DC 20002, USA","20002"
"150",158974662,114,"North Capitol St & F St NW",31624,38.897446,-77.00989,"23-49 F St NW, Washington, DC 20001, USA","20001"
"151",158974663,115,"11th & M St NW",31266,38.905607,-77.027137,"1100-1112 M St NW, Washington, DC 20005, USA","20005"
"152",158974664,116,"36th & Calvert St NW / Glover Park",31304,38.922581,-77.070334,"12-80 Observatory Cir NW, Washington, DC 20008, USA","20008"
"153",158974665,117,"14th & G St NW",31238,38.898069,-77.031823,"699 14th St NW, Washington, DC 20005, USA","20005"
"154",158974666,118,"Potomac Ave & 35th St S",31052,38.844015,-77.050537,"3400 Potomac Ave, Arlington, VA 22202, USA","22202"
"155",158974667,124,"Ohio Dr & West Basin Dr SW / MLK & FDR Memorials",31240,38.88412,-77.04657,"4592 Ohio Dr SW, Washington, DC 20551, USA","20551"
"156",158974668,125,"11th & F St NW",31262,38.897857,-77.026975,"601-699 11th St NW, Washington, DC 20004, USA","20004"
"157",158974669,126,"23rd & E St NW",31260,38.896104,-77.049882,"2299 E St NW, Washington, DC 20037, USA","20037"
"158",158974670,127,"Lynn & 19th St North",31014,38.897315,-77.070993,"1912-1968 N Lynn St, Arlington, VA 22209, USA","22209"
"159",158974671,128,"Rosslyn Metro / Wilson Blvd & Ft Myer Dr",31015,38.8946,-77.072305,"1696-1798 N Fort Myer Dr, Arlington, VA 22209, USA","22209"
"160",158974672,129,"Clarendon Blvd & Pierce St",31016,38.893438,-77.076389,"1560-1598 Clarendon Blvd, Arlington, VA 22209, USA","22209"
"161",158974673,130,"Wilson Blvd & N Uhle St",31017,38.891696,-77.0846,"2055 Wilson Blvd, Arlington, VA 22201, USA","22201"
"162",158974674,131,"N Rhodes & 16th St N",31018,38.892164,-77.079375,"1605-1609 N Rhodes St, Arlington, VA 22209, USA","22209"
"163",158974675,132,"Fairfax Village",31706,38.86559,-76.952103,"3792-3794 Alabama Ave SE, Washington, DC 20020, USA","20020"
"164",158974676,133,"21st St & Constitution Ave NW",31261,38.892459,-77.046567,"101-299 21st St NW, Washington, DC, USA",NA
"165",158974677,134,"Wilson Blvd & N Edgewood St",31019,38.889,-77.0925,"2825-2847 Wilson Blvd, Arlington, VA 22201, USA","22201"
"166",158974678,135,"Columbia Rd & Belmont St NW",31113,38.920669,-77.04368,"1862 Columbia Rd NW, Washington, DC 20009, USA","20009"
"167",158974679,136,"Rhode Island & Connecticut Ave NW",31239,38.905996,-77.039802,"1740 Rhode Island Ave NW, Washington, DC 20036, USA","20036"
"168",158974680,137,"Thomas Circle",31241,38.9059,-77.0325,"1339-1403 Massachusetts Ave NW, Washington, DC 20005, USA","20005"
"169",158974681,138,"Wilson Blvd & Franklin Rd",31020,38.8904,-77.0889,"2519 Wilson Blvd, Arlington, VA 22201, USA","22201"
"170",158974682,139,"Clarendon Blvd & N Fillmore St",31021,38.8881,-77.09308,"1303 N Fillmore St, Arlington, VA 22201, USA","22201"
"171",158974683,140,"Clarendon Metro / Wilson Blvd & N Highland St",31022,38.88786,-77.094875,"1151-1199 N Highland St, Arlington, VA 22201, USA","22201"
"172",158974684,141,"18th St & Pennsylvania Ave NW",31242,38.89968,-77.041539,"763-799 18th St NW, Washington, DC 20006, USA","20006"
"173",158974685,142,"Maryland & Independence Ave SW",31243,38.887299,-77.018939,"562-598 Maryland Ave SW, Washington, DC 20202, USA","20202"
"174",158974686,143,"4th & E St SW",31244,38.88412,-77.017445,"388-408 4th St SW, Washington, DC 20024, USA","20024"
"175",158974687,144,"3rd & G St SE",31625,38.881185,-77.001828,"301-315 G St SE, Washington, DC 20003, USA","20003"
"176",158974688,145,"7th & R St NW / Shaw Library",31245,38.912719,-77.022155,"701-799 R St NW, Washington, DC 20001, USA","20001"
"177",158974689,146,"9th & Upshur St NW",31404,38.9418,-77.0251,"4148-4198 9th St NW, Washington, DC 20011, USA","20011"
"178",158974690,147,"1st & Rhode Island Ave NW",31506,38.915417,-77.012289,"1832 1st St NW, Washington, DC 20001, USA","20001"
"179",158974691,148,"Columbia Rd & Georgia Ave NW",31115,38.928121,-77.023795,"701-737 Columbia Rd NW, Washington, DC 20001, USA","20001"
"180",158974692,149,"California St & Florida Ave NW",31116,38.917761,-77.04062,"1724 California St NW, Washington, DC 20009, USA","20009"
"181",158974693,150,"Benning Rd & East Capitol St NE / Benning Rd Metro",31707,38.889935,-76.93723,"4500-4510 East Capitol St NE, Washington, DC 20019, USA","20019"
"182",158974694,151,"3000 Connecticut Ave NW / National Zoo",31307,38.930282,-77.055599,"3080 Connecticut Ave NW, Washington, DC 20008, USA","20008"
"183",158974695,152,"Anacostia Ave & Benning Rd NE / River Terrace",31708,38.896544,-76.96012,"382-398 Anacostia Ave NE, Washington, DC 20019, USA","20019"
"184",158974696,153,"M St & Pennsylvania Ave NW",31246,38.905126,-77.056887,"1201-1207 28th St NW, Washington, DC 20007, USA","20007"
"185",158974697,154,"15th St & Massachusetts Ave SE",31626,38.88732,-76.983569,"200-206 15th St SE, Washington, DC 20003, USA","20003"
"186",158974698,155,"Congress Heights Metro",31806,38.844711,-76.987823,"1319 Alabama Ave SE, Washington, DC 20032, USA","20032"
"187",158974699,156,"N Quincy St & Glebe Rd",31035,38.876393,-77.107735,"4001 5th St N, Arlington, VA 22203, USA","22203"
"188",158974700,157,"Barcroft Community Center",31033,38.850337,-77.100989,"4200 S Four Mile Run Dr, Arlington, VA 22206, USA","22206"
"189",158974701,158,"N Veitch  & 20th St N",31029,38.896923,-77.086502,"2101-2199 21st St N, Arlington, VA 22201, USA","22201"
"190",158974702,159,"10th & K St NW",31263,38.9024,-77.02622,"1014 K St NW, Washington, DC 20001, USA","20001"
"191",158974703,160,"Fairfax Dr & Wilson Blvd",31023,38.885801,-77.097745,"Fairfax Dr, Arlington, VA 22201, USA","22201"
"192",158974704,161,"Key Blvd & N Quinn St",31027,38.896015,-77.078107,"1614-1698 Key Blvd, Arlington, VA 22209, USA","22209"
"193",158974705,162,"1st & K St SE",31628,38.87861,-77.006004,"925 First St SE, Washington, DC 20003, USA","20003"
"194",158974706,163,"39th & Calvert St NW / Stoddert",31306,38.922649,-77.077271,"3901-3949 Calvert St NW, Washington, DC 20007, USA","20007"
"195",158974707,164,"1st & Washington Hospital Center NW",31507,38.928743,-77.012457,"Hospital Circle NW, Washington, DC 20010, USA","20010"
"196",158974708,165,"Virginia Square Metro / N Monroe St & 9th St N",31024,38.882788,-77.103148,"900 North Monroe Street, Arlington, VA 22203, USA","22203"
"197",158974709,166,"Central Library / N Quincy St & 10th St N",31025,38.88397,-77.10783,"1031-1055 N Quincy St, Arlington, VA 22201, USA","22201"
"198",158974710,167,"Washington Blvd & 10th St N",31026,38.884734,-77.093485,"2900 Washington Blvd, Arlington, VA 22201, USA","22201"
"199",158974711,168,"Jefferson Dr & 14th St SW",31247,38.888553,-77.032429,"1400 Jefferson Dr SW, Washington, DC 20024, USA","20024"
"200",158974712,169,"Smithsonian-National Mall / Jefferson Dr & 12th St SW",31248,38.888767,-77.02858,"1157-1275 Jefferson Dr SW, Washington, DC 20560, USA","20560"
"201",158974713,170,"George Mason Dr & Wilson Blvd",31036,38.87887,-77.1207,"Bluemont Junction Trail, Arlington, VA 22203, USA","22203"
"202",158974714,171,"6th St & Indiana Ave NW",31264,38.894573,-77.01994,"368-398 6th St NW, Washington, DC 20004, USA","20004"
"203",158974715,172,"N Veitch & Key Blvd",31028,38.893241,-77.086045,"1663-1699 N Veitch St, Arlington, VA 22201, USA","22201"
"204",158974716,173,"Lee Hwy & N Adams St",31030,38.89593,-77.089006,"1920 N Adams St, Arlington, VA 22201, USA","22201"
"205",158974717,174,"15th & N Scott St",31031,38.89054,-77.08095,"1901-1931 15th St N, Arlington, VA 22201, USA","22201"
"206",158974718,175,"Washington Blvd & 7th St N",31032,38.880834,-77.091129,"2741-2799 7th St N, Arlington, VA 22201, USA","22201"
"207",158974719,176,"Ballston Metro / N Stuart & 9th St N",31037,38.881044,-77.111768,"900-998 N Stuart St, Arlington, VA 22203, USA","22203"
"208",158974720,177,"N Randolph St & Fairfax Dr",31034,38.882629,-77.109366,"1001 N Randolph St, Arlington, VA 22201, USA","22201"
"209",158974721,178,"Jefferson Memorial",31249,38.879819,-77.037413,"17 E Basin Dr SW, Washington, DC 20242, USA","20242"
"210",158974722,179,"Good Hope Rd & 14th St SE",31803,38.866611,-76.985238,"1907-1909 14th St SE, Washington, DC 20020, USA","20020"
"211",158974723,180,"Glebe Rd & 11th St N",31038,38.883921,-77.116817,"1100-1106 N Glebe Rd, Arlington, VA 22201, USA","22201"
"212",158974724,181,"Wilson Blvd & N Quincy St",31039,38.880012,-77.107854,"4001-4051 Wilson Blvd, Arlington, VA 22217, USA","22217"
"213",158974725,182,"Fairfax Dr & Kenmore St",31040,38.884616,-77.10108,"3401 Fairfax Dr, Arlington, VA 22201, USA","22201"
"214",158974726,183,"Gallaudet / 8th St & Florida Ave NE",31508,38.90509,-76.9941,"Fowler Hall, 800 Florida Ave NE, Washington, DC 20002, USA","20002"
"215",158974727,185,"20th & L St NW",31250,38.903584,-77.044789,"1001-1099 20th St NW, Washington, DC 20036, USA","20036"
"216",158974728,186,"12th & L St NW",31251,38.903819,-77.0284,"1201 L St NW, Washington, DC 20005, USA","20005"
"217",158974729,187,"21st St & Pennsylvania Ave NW",31252,38.901539,-77.046564,"975-987 21st St NW, Washington, DC 20006, USA","20006"
"218",158974730,188,"19th & K St NW",31253,38.902204,-77.04337,"931-999 19th St NW, Washington, DC 20006, USA","20006"
"219",158974731,189,"Prince St & Union St",31041,38.803124,-77.040363,"1 Prince St, Alexandria, VA 22314, USA","22314"
"220",158974732,190,"Market Square / King St & Royal St",31042,38.804718,-77.043363,"301-399 King St, Alexandria, VA 22314, USA","22314"
"221",158974733,191,"Saint Asaph St & Pendleton  St",31043,38.810743,-77.044664,"612 N St Asaph St, Alexandria, VA 22314, USA","22314"
"222",158974734,192,"King St & Patrick St",31044,38.805317,-77.049883,"908 VA-7, Alexandria, VA 22314, USA","22314"
"223",158974735,193,"15th & K St NW",31254,38.902,-77.03353,"955-999 15th St NW, Washington, DC 20005, USA","20005"
"224",158974736,194,"Commerce St & Fayette St",31045,38.805648,-77.05293,"127-199 Commerce St, Alexandria, VA 22314, USA","22314"
"225",158974737,195,"Henry St & Pendleton St",31046,38.811456,-77.050276,"600 N Henry St, Alexandria, VA 22314, USA","22314"
"226",158974738,196,"Braddock Rd Metro",31047,38.814577,-77.052808,"814 N West St, Alexandria, VA 22314, USA","22314"
"227",158974739,197,"King St Metro South",31048,38.805767,-77.06072,"1850-1864 Diagonal Rd, Alexandria, VA 22314, USA","22314"
"228",158974740,198,"24th & N St NW",31255,38.9066,-77.05152,"120 Nairobi Ct NW, Washington, DC 20037, USA","20037"
"229",158974741,199,"10th & E St NW",31256,38.895914,-77.026064,"440-498 10th St NW, Washington, DC 20004, USA","20004"
"230",158974742,200,"22nd & I St NW / Foggy Bottom",31257,38.90088,-77.048911,"2201 I St NW, Washington, DC 20006, USA","20006"
"231",158974743,201,"Utah St & 11th St N",31049,38.883669,-77.113905,"1101 N Utah St, Arlington, VA 22201, USA","22201"
"232",158974744,202,"Barton St & 10th St N",31050,38.884961,-77.08777,"1001-1023 N Barton St, Arlington, VA 22201, USA","22201"
"233",158974745,203,"Arlington Blvd & N Queen St",31051,38.889365,-77.077294,"1251-1301 N Queen St, Arlington, VA 22209, USA","22209"
"234",158974746,204,"Lincoln Memorial",31258,38.888251,-77.049426,"665 Daniel French Dr SW, Washington, DC 20245, USA","20245"
"235",158974747,206,"20th St & Virginia Ave NW",31259,38.894722,-77.045128,"511 20th St NW, Washington, DC 20006, USA","20006"
"236",158974748,207,"5th St & Massachusetts Ave NW",31265,38.90093,-77.018677,"502 I St NW, Washington, DC 20001, USA","20001"
"237",158974749,208,"39th & Veazey St NW",31308,38.943837,-77.077078,"4200-4232 39th St NW, Washington, DC 20016, USA","20016"
"238",158974750,209,"Fessenden St & Wisconsin Ave NW",31309,38.954812,-77.082426,"4209-4219 Fessenden St NW, Washington, MD 20016, USA","20016"
"239",158974751,210,"M St & Delaware Ave NE",31627,38.905707,-77.003041,"200-298 M St NE, Washington, DC 20002, USA","20002"
"240",158974384,262,"Traville Gateway Dr & Gudelsky Dr",32005,39.093783,-77.202501,"Traville Gateway Dr, Rockville, MD 20850, USA","20850"
"241",158974385,263,"Norfolk Ave & Fairmont St",32000,38.988562,-77.096539,"7801 Norfolk Ave, Bethesda, MD 20814, USA","20814"
"242",158974386,264,"E Montgomery Ave & Maryland Ave",32007,39.084125,-77.151291,"30 E Montgomery Ave, Rockville, MD 20850, USA","20850"
"243",158974387,265,"Cordell & Norfolk Ave",32008,38.98954,-77.098029,"4871 Cordell Ave, Bethesda, MD 20814, USA","20814"
"244",158974388,266,"Frederick Ave & Horners Ln",32009,39.094772,-77.145213,"313 Frederick Ave, Rockville, MD 20850, USA","20850"
"245",158974389,267,"Philadelphia & Maple Ave",32010,38.98128,-77.011336,"101 Philadelphia Ave, Takoma Park, MD 20912, USA","20912"
"246",158974390,268,"Maple & Ritchie Ave",32011,38.983627,-77.006311,"7620 Maple Ave, Takoma Park, MD 20912, USA","20912"
"247",158974391,269,"Silver Spring Metro/Colesville Rd & Wayne Ave",32012,38.99521,-77.02918,"8500 Colesville Rd, Silver Spring, MD 20910, USA","20910"
"248",158974392,270,"Montgomery & East Ln",32013,38.983525,-77.095367,"4801-4817 Montgomery Ln, Bethesda, MD 20814, USA","20814"
"249",158974393,271,"Friendship Hts Metro/Wisconsin Ave & Wisconsin Cir",32014,38.961763,-77.085998,"5365-5399 Wisconsin Ave NW, Bethesda, MD 20815, USA","20815"
"250",158974394,272,"14th & Belmont St NW",31119,38.921074,-77.031887,"2420 14th St NW, Washington, DC 20009, USA","20009"
"251",158974395,273,"3rd & Tingey St SE",31634,38.87501,-77.0024,"214-230 Tingey St SE, Washington, DC 20003, USA","20003"
"252",158974396,274,"10th & Florida Ave NW",31120,38.920387,-77.025672,"989 Florida Ave NW, Washington, DC 20001, USA","20001"
"253",158974397,275,"Potomac Ave & 8th St SE",31635,38.876737,-76.994468,"875-999 Potomac Ave SE, Washington, DC 20003, USA","20003"
"254",158974398,276,"Crabbs Branch Way & Redland Rd",32015,39.120045,-77.156985,"16141-16153 Crabbs Branch Way, Derwood, MD 20855, USA","20855"
"255",158974399,277,"Fallsgrove Dr & W Montgomery Ave",32016,39.099376,-77.188014,"717 Fallsgrove Dr, Rockville, MD 20850, USA","20850"
"256",158974400,278,"Monroe St & Monroe Pl",32017,39.083673,-77.149162,"95 Monroe St, Rockville, MD 20850, USA","20850"
"257",158974401,279,"Needwood Rd & Eagles Head Ct",32018,39.123513,-77.15741,"8133-8165 Needwood Rd, Derwood, MD 20855, USA","20855"
"258",158974402,280,"East West Hwy & Blair Mill Rd",32019,38.990249,-77.02935,"1200 East West Highway, Silver Spring, MD 20910, USA","20910"
"259",158974403,281,"Crabbs Branch Way & Calhoun Pl",32020,39.107709,-77.152072,"Crabbs Branch Way, Derwood, MD 20855, USA","20855"
"260",158974404,282,"47th & Elm St",32021,38.982456,-77.091991,"4609 Elm St, Chevy Chase, MD 20815, USA","20815"
"261",158974405,283,"Garland Ave & Walden Rd",32022,39.000578,-77.00149,"8800 Garland Ave, Silver Spring, MD 20901, USA","20901"
"262",158974406,284,"Montgomery College/W Campus Dr & Mannakee St",32023,39.095661,-77.159048,"South Campus Drive, Rockville, MD 20850, USA","20850"
"263",158974407,285,"Fenton St & Gist Ave",32024,38.989724,-77.023854,"7993-8027 Fenton St, Silver Spring, MD 20910, USA","20910"
"264",158974408,286,"Carroll & Westmoreland Ave",32025,38.975,-77.01121,"7031-7035 Carroll Ave, Takoma Park, MD 20912, USA","20912"
"265",158974409,287,"Carroll & Ethan Allen Ave",32026,38.977933,-77.006472,"7224 MD-410, Takoma Park, MD 20912, USA","20912"
"266",158974410,288,"Battery Ln & Trolley Trail",32027,38.992375,-77.100104,"4920 Battery Ln, Bethesda, MD 20814, USA","20814"
"267",158974411,289,"Norfolk & Rugby Ave",32028,38.990639,-77.100239,"8106 Norfolk Ave, Bethesda, MD 20814, USA","20814"
"268",158974412,290,"Offutt Ln & Chevy Chase Dr",32029,38.977093,-77.094589,"6701-6799 Offutt Ln, Bethesda, MD 20815, USA","20815"
"269",158974413,291,"Broschart & Blackwell Rd",32030,39.102099,-77.200322,"15000-15010 Broschart Rd, Rockville, MD 20850, USA","20850"
"270",158974414,292,"Taft St & E Gude Dr",32031,39.094103,-77.132954,"1340 Taft St, Rockville, MD 20850, USA","20850"
"271",158974415,293,"Fleet St & Ritchie Pkwy",32032,39.076331,-77.141378,"101-121 Ritchie Pkwy, Rockville, MD 20852, USA","20852"
"272",158974416,294,"Piccard & W Gude Dr",32033,39.102212,-77.177091,"1301 Piccard Dr, Rockville, MD 20850, USA","20850"
"273",158974417,295,"Ripley & Bonifant St",32034,38.992679,-77.029457,"1055 Ripley St, Silver Spring, MD 20910, USA","20910"
"274",158974418,296,"Georgia Ave & Spring St",32035,38.999388,-77.031555,"8799 Georgia Ave, Silver Spring, MD 20910, USA","20910"
"275",158974419,297,"Fenton St & Ellsworth Dr",32036,38.997033,-77.025608,"8527-8531 Fenton St, Silver Spring, MD 20910, USA","20910"
"276",158974420,298,"King Farm Blvd & Pleasant Dr",32037,39.114688,-77.171487,"304-498 King Farm Blvd, Rockville, MD 20850, USA","20850"
"277",158974421,299,"King Farm Blvd & Piccard Dr",32038,39.110314,-77.182669,"900-920 King Farm Blvd, Rockville, MD 20850, USA","20850"
"278",158974422,301,"Calvert St & Woodley Pl NW",31121,38.923583,-77.050046,"2081-2299 Calvert St NW, Washington, DC 20008, USA","20008"
"279",158974423,302,"New Jersey Ave & N St NW/Dunbar HS",31636,38.90706,-77.015231,"1243 New Jersey Ave NW, Washington, DC 20001, USA","20001"
"280",158974424,303,"Nannie Helen Burroughs Ave & 49th St NE",31710,38.898536,-76.931862,"4875-4899 Nannie Helen Burroughs Ave NE, Washington, DC 20019, USA","20019"
"281",158974425,304,"Deanwood Rec Center",31711,38.908473,-76.933099,"1350 49th St NE, Washington, DC 20019, USA","20019"
"282",158974426,305,"Hains Point/Buckeye & Ohio Dr SW",31273,38.878433,-77.03023,"Buckeye Dr SW, Washington, DC 20024, USA","20024"
"283",158974427,306,"Arlington Blvd & Fillmore St",31070,38.873755,-77.089233,"2811 Arlington Blvd, Arlington, VA 22201, USA","22201"
"284",158974428,307,"Long Bridge Park/Long Bridge Dr & 6th St S",31071,38.86646,-77.04826,"475 Long Bridge Drive, Arlington, VA 22202, USA","22202"
"285",158974461,340,"Mount Vernon Ave & E Nelson Ave",31085,38.820064,-77.057619,"1504b Mt Vernon Ave, Alexandria, VA 22301, USA","22301"
"286",158974462,341,"Mount Vernon Ave & E Del Ray Ave",31086,38.82595,-77.058541,"2207-2213 Mt Vernon Ave, Alexandria, VA 22301, USA","22301"
"287",158974463,342,"Monroe Ave & Leslie Ave",31087,38.820932,-77.053096,"433-467 E Monroe Ave, Alexandria, VA 22301, USA","22301"
"288",158974464,343,"Mount Vernon Ave & Kennedy St",31088,38.833077,-77.059821,"3059-3061 Mt Vernon Ave, Alexandria, VA 22305, USA","22305"
"289",158974465,344,"Court House Metro / 15th & N Uhle St",31089,38.890612,-77.084801,"2055 15th St N, Arlington, VA 22201, USA","22201"
"290",158974466,345,"Washington Adventist U / Flower Ave & Division St",32049,38.986743,-77.000035,"7644-7668 Flower Ave, Takoma Park, MD 20912, USA","20912"
"291",158974467,346,"6th & S Ball St",31090,38.864702,-77.048672,"600-688 S Ball St, Arlington, VA 22202, USA","22202"
"292",158974468,347,"McKinley St & Connecticut Ave NW",31315,38.96497,-77.075946,"3807 McKinley St NW, Washington, DC 20015, USA","20015"
"293",158974469,348,"15th & L St NW",31276,38.90366,-77.034846,"1500-1522 L St NW, Washington, DC 20036, USA","20036"
"294",158974470,349,"17th & G St NW",31277,38.89841,-77.039624,"1701-1709 G St NW, Washington, DC 20006, USA","20006"
"295",158974471,350,"Spring St & Second Ave",32050,38.997653,-77.034499,"1450-1468 Spring St, Silver Spring, MD 20910, USA","20910"
"296",158974472,351,"18th & R St NW",31278,38.912648,-77.041834,"1801-1811 R St NW, Washington, DC 20009, USA","20009"
"297",158974473,352,"S Joyce & 16th St S",31091,38.859254,-77.063275,"1569-1575 S Joyce St, Arlington, VA 22202, USA","22202"
"298",158974429,308,"Old Georgetown Rd & Southwick St",32039,38.999634,-77.109647,"8800-8804 Old Georgetown Rd, Bethesda, MD 20814, USA","20814"
"299",158974430,309,"Friendship Blvd & Willard Ave",32040,38.96115,-77.088659,"5311 Friendship Blvd, Chevy Chase, MD 20815, USA","20815"
"300",158974431,310,"North Capitol St & G Pl NE",31637,38.899703,-77.008911,"725-777 North Capitol St NE, Washington, DC 20002, USA","20002"
"301",158974432,311,"31st & Woodrow St S",31072,38.837666,-77.09482,"4591-4649 31st St S, Arlington, VA 22206, USA","22206"
"302",158974433,312,"Washington Blvd & Walter Reed Dr",31073,38.873219,-77.082104,"2120 S Washington Blvd, Arlington, VA 22204, USA","22204"
"303",158974434,313,"TJ Cmty Ctr / 2nd St & S Old Glebe Rd",31074,38.869418,-77.095596,"3341-3377 2nd St S, Arlington, VA 22204, USA","22204"
"304",158974435,314,"Connecticut Ave & Tilden St NW",31313,38.941154,-77.062036,"3005 Tilden St NW, Washington, DC 20008, USA","20008"
"305",158974436,315,"Medical Center Dr & Key West Ave",32041,39.103091,-77.196442,"9635-9651 Medical Center Dr, Rockville, MD 20850, USA","20850"
"306",158974437,316,"Shady Grove Hospital",32042,39.097636,-77.196636,"Medical Center Way, Rockville, MD 20850, USA","20850"
"307",158974438,317,"Veterans Pl & Pershing Dr",32043,38.997445,-77.023894,"Veterans Pl, Silver Spring, MD 20910, USA","20910"
"308",158974439,318,"Rockville Metro East",32044,39.085394,-77.145803,"221 Park Rd, Rockville, MD 20850, USA","20850"
"309",158974440,319,"1st & H St NW",31638,38.900358,-77.012108,"801-840 1st St NW, Washington, DC 20001, USA","20001"
"310",158974441,320,"Fort Totten Metro",31515,38.952369,-77.002721,"300-324 Fort Totten Station, Washington, DC 20011, USA","20011"
"311",158974442,321,"Takoma Metro",31408,38.975219,-77.016855,"Takoma Station, Washington, DC 20012, USA","20012"
"312",158974443,322,"Rhode Island Ave Metro",31516,38.920682,-76.995876,"Brentwood Station, Washington, DC 20018, USA","20018"
"313",158974444,323,"Rolfe St & 9th St S",31075,38.866471,-77.076131,"1801-1899 9th St S, Arlington, VA 22204, USA","22204"
"314",158974445,324,"Shirlington Transit Center / S Quincy & Randolph St",31076,38.839912,-77.087083,"2850 S Quincy St, Arlington, VA 22206, USA","22206"
"315",158974446,325,"Shady Grove Metro West",32045,39.119765,-77.166093,"15903 Somerville Drive, Rockville, MD 20855, USA","20855"
"316",158974447,326,"River Rd & Landy Ln",32046,38.964992,-77.103381,"Capital Crescent Trail, Bethesda, MD 20815, USA","20815"
"317",158974448,327,"Rockville Metro West",32047,39.084379,-77.146866,"201-249 Rockville Pike, Rockville, MD 20850, USA","20850"
"318",158974449,328,"Bethesda Metro",32048,38.984691,-77.094537,"7498 Wisconsin Ave, Bethesda, MD 20814, USA","20814"
"319",158974450,329,"Iwo Jima Memorial/N Meade & 14th St N",31077,38.88992,-77.071301,"1310 N Meade St, Arlington, VA 22209, USA","22209"
"320",158974451,330,"34th & Water St NW",31314,38.903663,-77.067668,"3008 Capital Crescent Trail, Washington, DC 20007, USA","20007"
"321",158974452,331,"Duke St & John Carlyle St",31081,38.804378,-77.060866,"1790-1798 Duke St, Alexandria, VA 22314, USA","22314"
"322",158974453,332,"Lee Hwy & N Cleveland St",31079,38.894941,-77.09169,"2601-2619 US-29, Arlington, VA 22201, USA","22201"
"323",158974454,333,"Arlington Blvd & S George Mason Dr/NFATC",31078,38.869442,-77.104503,"Arlington Blvd & US-50, Arlington, VA 22204, USA","22204"
"324",158974455,334,"10th & G St NW",31274,38.898243,-77.026235,"1000-1098 G St NW, Washington, DC 20001, USA","20001"
"325",158974456,335,"Lee Hwy & N Scott St",31080,38.897612,-77.080851,"2020 N Scott St, Arlington, VA 22209, USA","22209"
"326",158974457,336,"New Hampshire Ave & 24th St NW",31275,38.901755,-77.051084,"916-950 New Hampshire Ave NW, Washington, DC 20037, USA","20037"
"327",158974458,337,"Eisenhower Ave & Mill Race Ln",31082,38.801111,-77.068952,"2301 Eisenhower Ave, Alexandria, VA 22314, USA","22314"
"328",158974459,338,"Potomac Greens Dr & Slaters Ln",31083,38.82175,-77.047494,"1552 Potomac Greens Dr, Alexandria, VA 22314, USA","22314"
"329",158974460,339,"Ballenger Ave & Dulaney St",31084,38.802677,-77.063562,"1999 Ballenger Ave, Alexandria, VA 22314, USA","22314"
"330",158974474,353,"Union Market/6th St & Neal Pl NE",31517,38.908008,-76.996985,"1291-1299 6th St NE, Washington, DC 20002, USA","20002"
"331",158974475,354,"Lee Hwy & N Monroe St",31092,38.896456,-77.104562,"2100-2112 North Monroe Street, Arlington, VA 22207, USA","22207"
"332",158974476,355,"21st St N & N Pierce St",31093,38.898984,-77.078317,"1638-1654 21st St N, Arlington, VA 22209, USA","22209"
"333",158974477,356,"Lee Hwy & N Kirkwood Rd",31094,38.895377,-77.09713,"3130 N Kirkwood Rd, Arlington, VA 22201, USA","22201"
"334",158974478,357,"19th & G St NW",31279,38.898412,-77.043182,"1801-1899 G St NW, Washington, DC 20433, USA","20433"
"335",158974479,358,"2nd St & Seaton Pl NE",31522,38.914751,-77.00356,"1800-1848 2nd St NE, Washington, DC 20002, USA","20002"
"336",158974480,359,"Wilson Blvd & N Illinois St",31902,38.876528,-77.12712,"820-898 N Illinois St, Arlington, VA 22205, USA","22205"
"337",158974481,364,"Army Navy Dr & S Nash St",31095,38.862467,-77.068242,"1300 Army Navy Dr, Arlington, VA 22202, USA","22202"
"338",158974482,365,"31st & Water St NW",31293,38.902814,-77.061043,"1015 31st St NW, Washington, DC 20007, USA","20007"
"339",158974483,367,"11th & S St NW",31280,38.913761,-77.027025,"1741 11th St NW, Washington, DC 20001, USA","20001"
"340",158974484,368,"S Walter Reed Dr & 8th St S",31096,38.86612,-77.08787,"806-830 S Walter Reed Dr, Arlington, VA 22204, USA","22204"
"341",158974485,369,"2nd & G St NE",31639,38.89967,-77.003666,"700 2nd St NE, Washington, DC 20002, USA","20002"
"342",158974486,370,"8th & O St NW",31281,38.90864,-77.02277,"701-799 O St NW, Washington, DC 20001, USA","20001"
"343",158974487,371,"Georgia & Missouri Ave NW",31411,38.961339,-77.027855,"5917 Georgia Ave NW, Washington, DC 20011, USA","20011"
"344",158974488,373,"Oklahoma Ave & D St NE",31712,38.894474,-76.974828,"200 Oklahoma Ave NE, Washington, DC 20002, USA","20002"
"345",158974489,374,"Maryland Ave & E St NE",31640,38.896134,-76.9929,"927 E St NE, Washington, DC 20002, USA","20002"
"346",158974490,375,"New York Ave & Hecht Ave NE",31518,38.915604,-76.983683,"2003 Hecht Avenue Northeast, Washington, DC 20002, USA","20002"
"347",158974491,376,"Yuma St & Tenley Circle NW",31316,38.946182,-77.08059,"4064-4116 Yuma St NW, Washington, DC 20016, USA","20016"
"348",158974492,377,"Connecticut Ave & Chevy Chase Lake Dr",32051,38.994113,-77.076986,"2401 Georgetown Branch Trail, Chevy Chase, MD 20815, USA","20815"
"349",158974493,378,"Key West Ave & Siesta Key Way",32052,39.105295,-77.194774,"9463-9465 Key W Ave, Rockville, MD 20850, USA","20850"
"350",158974494,379,"Lee Hwy & N Woodstock St",31900,38.898301,-77.118009,"2101-2199 N Woodstock St, Arlington, VA 22207, USA","22207"
"351",158974495,380,"Saint Asaph & Madison St",31097,38.812718,-77.044097,"723-799 N St Asaph St, Alexandria, VA 22314, USA","22314"
"352",158974496,381,"King St Metro North / Cameron St",31098,38.80704,-77.059817,"1787 Commonwealth Ave, Alexandria, VA 22301, USA","22301"
"353",158974497,382,"Madison & N Henry St",31099,38.813485,-77.049468,"1012 Madison St, Alexandria, VA 22314, USA","22314"
"354",158974498,383,"Medical Center Metro",32053,38.999378,-77.097882,"South Dr, Bethesda, MD 20892, USA","20892"
"355",158974499,384,"Washington Blvd & N Frederick St",31901,38.884829,-77.127671,"5150-5198 Washington Blvd, Arlington, VA 22205, USA","22205"
"356",158974500,385,"Wisconsin Ave & Ingomar St NW",31317,38.958267,-77.084636,"5230-5252 Wisconsin Ave NW, Washington, MD 20015, USA","20015"
"357",158974501,386,"16th & Irving St NW",31122,38.928893,-77.03625,"3100-3198 15th St NW, Washington, DC 20010, USA","20010"
"358",158974502,387,"16th & R St NW",31282,38.912652,-77.036278,"1519-1599 R St NW, Washington, DC 20009, USA","20009"
"359",158974503,388,"Lyttonsville Rd & Lyttonsville Pl",32054,38.999679,-77.051168,"2445 Lyttonsville Rd, Silver Spring, MD 20910, USA","20910"
"360",158974504,389,"Woodmont Ave & Strathmore St",32055,38.979875,-77.093522,"7122-7148 Woodmont Ave, Bethesda, MD 20815, USA","20815"
"361",158974505,390,"14th & L St NW",31283,38.903658,-77.031737,"1330 L St NW, Washington, DC 20005, USA","20005"
"362",158974506,391,"1st & O St NW",31519,38.908643,-77.012365,"83 O St NW, Washington, DC 20001, USA","20001"
"363",158974507,392,"South Capitol & Atlantic St SW",31811,38.831516,-77.008133,"1-3 Atlantic St SW, Washington, DC 20032, USA","20032"
"364",158974508,393,"18th & C St NW",31284,38.893511,-77.041544,"1758-1798 C St NW, Washington, DC 20006, USA","20006"
"365",158974509,394,"22nd & P ST NW",31285,38.909394,-77.048728,"1421 22nd St NW, Washington, DC 20037, USA","20037"
"366",158974510,395,"East West Hwy & 16th St",32056,38.995681,-77.038721,"1701-1703 East West Highway, Silver Spring, MD 20910, USA","20910"
"367",158974511,396,"Royal & Wilkes St",31903,38.799267,-77.0447,"500-598 S Royal St, Alexandria, VA 22314, USA","22314"
"368",158974512,397,"14th & Girard St NW",31123,38.925284,-77.032375,"2750 14th St NW, Washington, DC 20009, USA","20009"
"369",158974513,398,"Potomac Ave & Main Line Blvd",31910,38.822738,-77.049265,"650 Potomac Ave, Alexandria, VA 22301, USA","22301"
"370",158974514,399,"11th & O St NW",31286,38.90843,-77.02714,"1370-1398 11th St NW, Washington, DC 20001, USA","20001"
"371",158974515,400,"10th St & L'Enfant Plaza SW",31287,38.884377,-77.025791,"412-420 10th St SW, Washington, DC 20024, USA","20024"
"372",158974516,401,"Connecticut Ave & Yuma St NW",31318,38.947156,-77.065115,"4465 Connecticut Ave NW, Washington, DC 20008, USA","20008"
"373",158974517,402,"2nd St & Massachusetts Ave NE",31641,38.894972,-77.003135,"201 Massachusetts Ave NE, Washington, DC 20002, USA","20002"
"374",158974518,403,"Radford & Osage St",31908,38.828437,-77.086031,"1707 N Radford St, Alexandria, VA 22302, USA","22302"
"375",158974519,404,"East Falls Church Metro/Sycamore St & 19th St N",31904,38.884859,-77.155988,"1901-1931 N Sycamore St, Arlington, VA 22205, USA","22205"
"376",158974520,405,"Kennebec St & 11th St N",31905,38.880992,-77.135271,"1020-1098 N Kennebec St, Arlington, VA 22205, USA","22205"
"377",158974521,406,"Commonwealth Ave & Oak St",31906,38.812711,-77.061715,"Park Trail, Potomac, VA 22301, USA","22301"
"378",158974523,408,"4th St & Madison Dr NW",31288,38.890493,-77.017253,"314-388 Madison Dr NW, Washington, DC 20001, USA","20001"
"379",158974524,409,"Henry Bacon Dr & Lincoln Memorial Circle NW",31289,38.890544,-77.049379,"278-297 Henry Bacon Dr NW, Washington, DC 20245, USA","20245"
"380",158974525,410,"17th St & Independence Ave SW",31290,38.888097,-77.038325,"391 Independence Ave SW, Washington, DC 20024, USA","20024"
"381",158974526,411,"Franklin & S Washington St",31907,38.798133,-77.0487,"700-716 Franklin St, Alexandria, VA 22314, USA","22314"
"382",158974527,412,"Mount Vernon Ave & Four Mile Run Park",31909,38.843422,-77.064016,"4115 Mt Vernon Ave, Alexandria, VA 22305, USA","22305"
"383",158974528,413,"New Jersey Ave & L St NW",31642,38.903598,-77.01397,"1001-1073 New Jersey Ave NW, Washington, DC 20001, USA","20001"
"384",158974529,414,"Mount Vernon Ave & Bruce St",31912,38.841291,-77.063093,"3912 Bruce St, Alexandria, VA 22305, USA","22305"
"385",158974530,415,"Lee Center",31914,38.797557,-77.053766,"1108 Jefferson St, Alexandria, VA 22314, USA","22314"
"386",158974531,416,"Powhatan St & Bashford Ln",31915,38.818748,-77.047783,"1315 Powhatan St, Alexandria, VA 22314, USA","22314"
"387",158974532,417,"Potomac & Swann Ave",31916,38.829545,-77.047844,"Potomac Yard Trail, Alexandria, VA 22305, USA","22305"
"388",158974533,418,"14th & Irving St NW",31124,38.928552,-77.032224,"1366 Irving St NW, Washington, DC 20010, USA","20010"
"389",158974534,419,"16th & K St NW",31291,38.90268,-77.035737,"1503-1599 K St NW, Washington, DC 20006, USA","20006"
"390",158974535,420,"Wisconsin Ave & Brandywine St NW",31319,38.949813,-77.080217,"4025-4029 Brandywine St NW, Washington, DC 20016, USA","20016"
"391",158974536,421,"24th & R St NE / National Arboretum",31520,38.91263,-76.971923,"2300-2402 R St NE, Washington, DC 20002, USA","20002"
"392",158974537,422,"Division Ave & Foote St NE",31713,38.897407,-76.925907,"607 Division Ave NE, Washington, DC 20019, USA","20019"
"393",158974538,423,"16th & Q St SE / Anacostia HS",31812,38.870695,-76.982359,"1601 16th St SE, Washington, DC 20020, USA","20020"
"394",158974539,424,"Spring Hill Metro",32200,38.929261,-77.240654,"Parking Lot, Vienna, VA 22182, USA","22182"
"395",158974540,425,"Westpark Dr & Leesburg Pike",32201,38.92403,-77.235955,"8469-8493 Westpark Dr, Tysons, VA 22102, USA","22102"
"396",158974541,427,"Tysons One Pl & Chain Bridge Rd",32203,38.919475,-77.221179,"231 Tysons Blvd, Tysons, VA 22182, USA","22182"
"397",158974542,428,"Tysons Corner Station",32204,38.920939,-77.222115,"1784-1792 Tysons Blvd, Tysons, VA 22102, USA","22102"
"398",158974543,429,"Westpark & Jones Branch Dr",32205,38.924437,-77.217664,"7908 Westpark Dr, Tysons, VA 22102, USA","22102"
"399",158974544,430,"Jones Branch & Westbranch Dr",32206,38.931911,-77.219261,"7950 Jones Branch Dr, McLean, VA 22102, USA","22102"
"400",158974545,431,"Westpark & Park Run Dr",32207,38.928919,-77.225394,"8019-8099 Westpark Dr, Tysons, VA 22102, USA","22102"
"401",158974546,432,"Tysons West Transit Center",32208,38.932636,-77.231825,"VA-267 & Spring Hill Rd & VA-267, Tysons, VA 22102, USA","22102"
"402",158974547,433,"North Shore & Cameron Crescent Dr/Crescent Apartments",32209,38.970046,-77.338686,"1578 Cameron Crescent Dr, Reston, VA 20190, USA","20190"
"403",158974548,434,"Town Center Pkwy & Bowman Towne Dr",32210,38.962524,-77.361902,"1831-1849 Town Center Pkwy, Reston, VA 20190, USA","20190"
"404",158974549,435,"Reston Regional Library",32211,38.962095,-77.358815,"11931-11951 Bowman Towne Dr, Reston, VA 20190, USA","20190"
"405",158974550,1,"Eads St & 15th St S",31000,38.858971,-77.05323,"1547-1611 S Eads St, Arlington, VA 22202, USA","22202"
"406",158974551,2,"18th & Eads St.",31001,38.85725,-77.05332,"500-518 18th St S, Arlington, VA 22202, USA","22202"
"407",158974552,3,"20th & Crystal Dr",31002,38.856425,-77.049232,"1823-1965 Crystal Dr, Arlington, VA 22202, USA","22202"
"408",158974553,4,"15th & Crystal Dr",31003,38.86017,-77.049593,"401-405 15th St S, Arlington, VA 22202, USA","22202"
"409",158974554,5,"Aurora Hills Community Ctr/18th & Hayes St",31004,38.857866,-77.05949,"1600 S Hayes St, Arlington, VA 22202, USA","22202"
"410",158974555,6,"Pentagon City Metro / 12th & S Hayes St",31005,38.862303,-77.059936,"1250-1346 S Hayes St, Arlington, VA 22202, USA","22202"
"411",158974556,7,"S Joyce & Army Navy Dr",31006,38.8637,-77.0633,"1201-1237 S Joyce St, Arlington, VA 22202, USA","22202"
"412",158974557,8,"Crystal City Metro / 18th & Bell St",31007,38.857405,-77.051132,"1802-2066 S Bell St, Arlington, VA 22202, USA","22202"
"413",158974558,9,"12th & Army Navy Dr",31008,38.8629,-77.0528,"444-464 12th St S, Arlington, VA 22202, USA","22202"
"414",158974559,10,"27th & Crystal Dr",31009,38.848441,-77.051516,"2799 Jefferson Davis Hwy, Arlington, VA 22202, USA","22202"
"415",158974560,11,"S Glebe & Potomac Ave",31010,38.8426,-77.0502,"3650 S Glebe Rd, Arlington, VA 22202, USA","22202"
"416",158974561,12,"23rd & Crystal Dr",31011,38.8533,-77.0498,"201-221 23rd St S, Arlington, VA 22202, USA","22202"
"417",158974562,13,"26th & S Clark St",31012,38.850688,-77.05152,"26th St S, Arlington, VA 22202, USA","22202"
"418",158974563,14,"19th St & Pennsylvania Ave NW",31100,38.9003,-77.0429,"1875 H St NW, Washington, DC 20006, USA","20006"
"419",158974564,15,"14th & V St NW",31101,38.9176,-77.0321,"2006 14th St NW, Washington, DC 20009, USA","20009"
"420",158974565,16,"11th & Kenyon St NW",31102,38.929464,-77.027822,"3100-3198 11th St NW, Washington, DC 20010, USA","20010"
"421",158974566,17,"16th & Harvard St NW",31103,38.926088,-77.036536,"2840-2898 16th St NW, Washington, DC 20009, USA","20009"
"422",158974567,18,"Adams Mill & Columbia Rd NW",31104,38.922925,-77.042581,"1801 Adams Mill Rd NW, Washington, DC 20009, USA","20009"
"423",158974522,407,"Commonwealth & E Monroe Ave",31913,38.820058,-77.062821,"1-5 E Monroe Ave, Alexandria, VA 22301, USA","22301"
"424",158974568,19,"14th & Harvard St NW",31105,38.9268,-77.0322,"1371 Harvard St NW, Washington, DC 20009, USA","20009"
"425",158974569,20,"Calvert & Biltmore St NW",31106,38.923203,-77.047637,"2000-2108 Calvert St NW, Washington, DC 20009, USA","20009"
"426",158974570,21,"Lamont & Mt Pleasant NW",31107,38.9319,-77.0388,"3249-3299 17th St NW, Washington, DC 20010, USA","20010"
"427",158974571,22,"4th & M St SW",31108,38.8767,-77.0178,"1175-1197 4th St SW, Washington, DC 20024, USA","20024"
"428",158974572,23,"15th & P St NW",31201,38.90985,-77.034438,"1515 15th St NW, Washington, DC 20005, USA","20005"
"429",158974573,24,"14th & R St NW",31202,38.912682,-77.031681,"1375-1399 R St NW, Washington, DC 20009, USA","20009"
"430",158974574,25,"14th & Rhode Island Ave NW",31203,38.9086,-77.0323,"1400-1402 Rhode Island Ave NW, Washington, DC 20005, USA","20005"
"431",158974575,26,"20th & E St NW",31204,38.8963,-77.045,"524-538 20th St NW, Washington, DC 20052, USA","20052"
"432",158974576,27,"21st & I St NW",31205,38.9008,-77.047,"2100 Pennsylvania Avenue, Washington, DC 20037, USA","20037"
"433",158974577,28,"Georgia & New Hampshire Ave NW",31400,38.936043,-77.024649,"3666 New Hampshire Ave NW, Washington, DC 20010, USA","20010"
"434",158974578,29,"14th St & Spring Rd NW",31401,38.9375,-77.0328,"3712 14th St NW, Washington, DC 20010, USA","20010"
"435",158974579,30,"John McCormack Dr & Michigan Ave NE",31502,38.9346,-76.9955,"3602 John McCormack Dr NE, Washington, DC 20017, USA","20017"
"436",158974580,31,"5th & K St NW",31600,38.90304,-77.019027,"1054 5th St NW, Washington, DC 20001, USA","20001"
"437",158974581,32,"19th & East Capitol St SE",31601,38.8896,-76.9769,"1835 E Capitol St SE, Washington, DC 20003, USA","20003"
"438",158974582,33,"Park Rd & Holmead Pl NW",31602,38.9308,-77.0315,"1359 Park Rd NW, Washington, DC 20010, USA","20010"
"439",158974583,34,"Good Hope & Naylor Rd SE",31700,38.8601,-76.9672,"2712 Good Hope Rd SE, Washington, DC 20020, USA","20020"
"440",158974584,35,"Connecticut Ave & Newark St NW / Cleveland Park",31305,38.934267,-77.057979,"3400 Connecticut Ave NW, Washington, DC 20008, USA","20008"
"441",158974585,36,"Randle Circle & Minnesota Ave SE",31702,38.878,-76.9607,"37-41 Randle Cir SE, Washington, DC 20019, USA","20019"
"442",158974586,37,"Minnesota Ave Metro/DOES",31703,38.897063,-76.947446,"4058 Minnesota Ave NE, Washington, DC 20019, USA","20019"
"443",158974587,38,"Nannie Helen Burroughs & Minnesota Ave NE",31704,38.901385,-76.941877,"4265-4301 Nannie Helen Burroughs Ave NE, Washington, DC 20019, USA","20019"
"444",158974588,39,"Anacostia Metro",31801,38.862669,-76.994637,"2425 Shannon Pl SE, Washington, DC 20020, USA","20020"
"445",158974589,40,"Good Hope Rd & MLK Ave SE",31802,38.867373,-76.988039,"1214-1226 Good Hope Rd SE, Washington, DC 20020, USA","20020"
"446",158974590,41,"19th & E Street NW",31206,38.8952,-77.0436,"300-398 19th St NW, Washington, DC 20245, USA","20245"
"447",158974591,42,"4th & W St NE",31500,38.919077,-77.000648,"2170-2198 4th St NE, Washington, DC 20002, USA","20002"
"448",158974592,43,"10th & U St NW",31111,38.9172,-77.0259,"2001 10th St NW, Washington, DC 20001, USA","20001"
"449",158974593,44,"Georgia Ave and Fairmont St NW",31207,38.9249,-77.0222,"641-699 Fairmont St NW, Washington, DC 20001, USA","20001"
"450",158974594,45,"1st & N St  SE",31209,38.8743,-77.0057,"1300-1350 First St SE, Washington, DC 20003, USA","20003"
"451",158974595,46,"20th St & Florida Ave NW",31110,38.9154,-77.0446,"1919 Florida Ave NW, Washington, DC 20009, USA","20009"
"452",158974596,47,"7th & T St NW",31109,38.9155,-77.0222,"700-798 T St NW, Washington, DC 20001, USA","20001"
"453",158974597,48,"23rd & Eads St",31013,38.853531,-77.053509,"2260-2298 S Eads St, Arlington, VA 22202, USA","22202"
"454",158974598,49,"M St & New Jersey Ave SE",31208,38.8763,-77.0037,"151-199 M St SE, Washington, DC 20003, USA","20003"
"455",158974599,51,"Massachusetts Ave & Dupont Circle NW",31200,38.9101,-77.0444,"1919 Massachusetts Ave NW, Washington, DC 20036, USA","20036"
"456",158974600,52,"1st & M St NE",31603,38.9057,-77.0056,"130 M St NE, Washington, DC 20002, USA","20002"
"457",158974601,53,"21st & M St NW",31212,38.90534,-77.046774,"1198 21st St NW, Washington, DC 20037, USA","20037"
"458",158974602,54,"17th & K St NW",31213,38.90276,-77.03863,"1000-1030 17th St NW, Washington, DC 20036, USA","20036"
"459",158974603,55,"3rd & H St NW",31604,38.899408,-77.015289,"754-758 3rd St NW, Washington, DC 20001, USA","20001"
"460",158974604,56,"3rd & D St SE",31605,38.8851,-77.0023,"224D D St SE, Washington, DC 20003, USA","20003"
"461",158974605,57,"Potomac & Pennsylvania Ave SE",31606,38.8803,-76.9862,"1400 Potomac Ave SE, Washington, DC 20003, USA","20003"
"462",158974606,58,"14th & D St SE",31607,38.884,-76.9861,"1369-1399 D St SE, Washington, DC 20003, USA","20003"
"463",158974607,59,"17th & Corcoran St NW",31214,38.9121,-77.0387,"1701 Corcoran St NW, Washington, DC 20009, USA","20009"
"464",158974608,60,"Van Ness Metro / UDC",31300,38.944551,-77.063896,"4210-4238 Connecticut Ave NW, Washington, DC 20008, USA","20008"
"465",158974609,61,"Florida Ave & R St NW",31503,38.9126,-77.0135,"124-202 R St NW, Washington, DC 20001, USA","20001"
"466",158974610,62,"8th & Eye St SE / Barracks Row",31608,38.8792,-76.9953,"726 I St SE, Washington, DC 20003, USA","20003"
"467",158974611,63,"Ward Circle / American University",31301,38.938736,-77.087171,"4300-4354 Massachusetts Ave NW, Washington, DC 20016, USA","20016"
"468",158974612,64,"Wisconsin Ave & Newark St NW",31302,38.934881,-77.072755,"3400-3402 Wisconsin Ave NW, Washington, DC 20016, USA","20016"
"469",158974613,65,"14th St Heights / 14th & Crittenden St NW",31402,38.947774,-77.032818,"4720 14th St NW, Washington, DC 20011, USA","20011"
"470",158974614,66,"Anacostia Library",31804,38.865784,-76.9784,"1800 Good Hope Rd SE, Washington, DC 20020, USA","20020"
"471",158974615,67,"Pennsylvania & Minnesota Ave SE",31805,38.873057,-76.971015,"1401-1455 25th St SE, Washington, DC 20020, USA","20020"
